[{"OBJECT_NAME":"OBJECT B","OBJECT_ID":"2023-189B","EPOCH":"2026-03-09T23:19:13.152000","MEAN_MOTION":15.72871024,"ECCENTRICITY":0.00049112,"INCLINATION":97.414,"RA_OF_ASC_NODE":101.6861,"ARG_OF_PERICENTER":172.6117,"MEAN_ANOMALY":187.522,"EPHEMERIS_TYPE":0,"CLASSIFICATION_TYPE":"U","NORAD_CAT_ID":58503,"ELEMENT_SET_NO":999,"REV_AT_EPOCH":12706,"BSTAR":0.00074828171,"MEAN_MOTION_DOT":0.00102221,"MEAN_MOTION_DDOT":0},{"OBJECT_NAME":"STARLINK-11342 [DTC]","OBJECT_ID":"2024-187G","EPOCH":"2026-03-09T20:59:15.381312","MEAN_MOTION":15.69698874,"ECCENTRICITY":9.448e-5,"INCLINATION":53.1598,"RA_OF_ASC_NODE":295.0243,"ARG_OF_PERICENTER":72.6516,"MEAN_ANOMALY":287.4605,"EPHEMERIS_TYPE":0,"CLASSIFICATION_TYPE":"U","NORAD_CAT_ID":61580,"ELEMENT_SET_NO":999,"REV_AT_EPOCH":8083,"BSTAR":-5.206643e-6,"MEAN_MOTION_DOT":-1.219e-5,"MEAN_MOTION_DDOT":0}]
